{
  "type": "FeatureCollection",
  "features": [
    {
      "type": "Feature",
      "properties": {
        "OBJECT_NAME": "IRIDIUM 33 DEB",
        "OBJECT_ID": "1997-051ZC",
        "EPOCH": "2025-11-28T13:03:25.056000",
        "MEAN_MOTION": 14.27230977,
        "ECCENTRICITY": 0.00630043,
        "INCLINATION": 86.2981,
        "RA_OF_ASC_NODE": 54.5073,
        "ARG_OF_PERICENTER": 235.4166,
        "MEAN_ANOMALY": 188.4781,
        "EPHEMERIS_TYPE": 0,
        "CLASSIFICATION_TYPE": "U",
        "NORAD_CAT_ID": 38228,
        "ELEMENT_SET_NO": 999,
        "REV_AT_EPOCH": 84579,
        "BSTAR": 0.00043604474,
        "MEAN_MOTION_DOT": 1.106e-05,
        "MEAN_MOTION_DDOT": 0,
        "norad_id": 38228,
        "name": "IRIDIUM 33 DEB",
        "group": "iridium-33-debris",
        "longitude_deg": NaN,
        "latitude_deg": NaN,
        "alt_km": NaN,
        "orbit_class": "HEO",
        "timestamp": "2025-11-30T09:33:02.606363+00:00"
      },
      "geometry": {
        "type": "Point",
        "coordinates": [
          NaN,
          NaN
        ]
      }
    },
    {
      "type": "Feature",
      "properties": {
        "OBJECT_NAME": "IRIDIUM 33 DEB",
        "OBJECT_ID": "1997-051AAB",
        "EPOCH": "2025-11-18T21:15:17.193024",
        "MEAN_MOTION": 14.505562,
        "ECCENTRICITY": 0.00266572,
        "INCLINATION": 86.3457,
        "RA_OF_ASC_NODE": 20.4527,
        "ARG_OF_PERICENTER": 163.9264,
        "MEAN_ANOMALY": 196.2793,
        "EPHEMERIS_TYPE": 0,
        "CLASSIFICATION_TYPE": "U",
        "NORAD_CAT_ID": 38474,
        "ELEMENT_SET_NO": 999,
        "REV_AT_EPOCH": 64972,
        "BSTAR": 0.00055307456,
        "MEAN_MOTION_DOT": 2.196e-05,
        "MEAN_MOTION_DDOT": 0,
        "norad_id": 38474,
        "name": "IRIDIUM 33 DEB",
        "group": "iridium-33-debris",
        "longitude_deg": NaN,
        "latitude_deg": NaN,
        "alt_km": NaN,
        "orbit_class": "HEO",
        "timestamp": "2025-11-30T09:33:02.606376+00:00"
      },
      "geometry": {
        "type": "Point",
        "coordinates": [
          NaN,
          NaN
        ]
      }
    },
    {
      "type": "Feature",
      "properties": {
        "OBJECT_NAME": "IRIDIUM 33 DEB",
        "OBJECT_ID": "1997-051AAJ",
        "EPOCH": "2025-11-27T13:22:16.014720",
        "MEAN_MOTION": 14.55934164,
        "ECCENTRICITY": 0.00595467,
        "INCLINATION": 85.9632,
        "RA_OF_ASC_NODE": 182.4074,
        "ARG_OF_PERICENTER": 238.9881,
        "MEAN_ANOMALY": 120.5471,
        "EPHEMERIS_TYPE": 0,
        "CLASSIFICATION_TYPE": "U",
        "NORAD_CAT_ID": 39777,
        "ELEMENT_SET_NO": 999,
        "REV_AT_EPOCH": 59964,
        "BSTAR": 0.0020804938,
        "MEAN_MOTION_DOT": 9.386e-05,
        "MEAN_MOTION_DDOT": 0,
        "norad_id": 39777,
        "name": "IRIDIUM 33 DEB",
        "group": "iridium-33-debris",
        "longitude_deg": NaN,
        "latitude_deg": NaN,
        "alt_km": NaN,
        "orbit_class": "HEO",
        "timestamp": "2025-11-30T09:33:02.606383+00:00"
      },
      "geometry": {
        "type": "Point",
        "coordinates": [
          NaN,
          NaN
        ]
      }
    },
    {
      "type": "Feature",
      "properties": {
        "OBJECT_NAME": "IRIDIUM 33 DEB",
        "OBJECT_ID": "1997-051AAK",
        "EPOCH": "2025-11-28T22:39:52.364448",
        "MEAN_MOTION": 14.54103709,
        "ECCENTRICITY": 0.00090272,
        "INCLINATION": 86.3783,
        "RA_OF_ASC_NODE": 49.2122,
        "ARG_OF_PERICENTER": 80.8858,
        "MEAN_ANOMALY": 279.337,
        "EPHEMERIS_TYPE": 0,
        "CLASSIFICATION_TYPE": "U",
        "NORAD_CAT_ID": 39778,
        "ELEMENT_SET_NO": 999,
        "REV_AT_EPOCH": 60492,
        "BSTAR": 0.0010078213,
        "MEAN_MOTION_DOT": 4.278e-05,
        "MEAN_MOTION_DDOT": 0,
        "norad_id": 39778,
        "name": "IRIDIUM 33 DEB",
        "group": "iridium-33-debris",
        "longitude_deg": NaN,
        "latitude_deg": NaN,
        "alt_km": NaN,
        "orbit_class": "HEO",
        "timestamp": "2025-11-30T09:33:02.606389+00:00"
      },
      "geometry": {
        "type": "Point",
        "coordinates": [
          NaN,
          NaN
        ]
      }
    },
    {
      "type": "Feature",
      "properties": {
        "OBJECT_NAME": "IRIDIUM 33 DEB",
        "OBJECT_ID": "1997-051AAN",
        "EPOCH": "2025-11-25T14:21:14.734944",
        "MEAN_MOTION": 14.19901183,
        "ECCENTRICITY": 0.01838091,
        "INCLINATION": 86.3695,
        "RA_OF_ASC_NODE": 265.0386,
        "ARG_OF_PERICENTER": 326.8812,
        "MEAN_ANOMALY": 213.9238,
        "EPHEMERIS_TYPE": 0,
        "CLASSIFICATION_TYPE": "U",
        "NORAD_CAT_ID": 39781,
        "ELEMENT_SET_NO": 999,
        "REV_AT_EPOCH": 7863,
        "BSTAR": 0.0066083935,
        "MEAN_MOTION_DOT": 0.00016655,
        "MEAN_MOTION_DDOT": 0,
        "norad_id": 39781,
        "name": "IRIDIUM 33 DEB",
        "group": "iridium-33-debris",
        "longitude_deg": NaN,
        "latitude_deg": NaN,
        "alt_km": NaN,
        "orbit_class": "HEO",
        "timestamp": "2025-11-30T09:33:02.606395+00:00"
      },
      "geometry": {
        "type": "Point",
        "coordinates": [
          NaN,
          NaN
        ]
      }
    },
    {
      "type": "Feature",
      "properties": {
        "OBJECT_NAME": "IRIDIUM 33 DEB",
        "OBJECT_ID": "1997-051AAQ",
        "EPOCH": "2025-11-16T15:05:40.850592",
        "MEAN_MOTION": 15.19327111,
        "ECCENTRICITY": 0.00057535,
        "INCLINATION": 86.1306,
        "RA_OF_ASC_NODE": 268.8004,
        "ARG_OF_PERICENTER": 179.9151,
        "MEAN_ANOMALY": 1.8316,
        "EPHEMERIS_TYPE": 0,
        "CLASSIFICATION_TYPE": "U",
        "NORAD_CAT_ID": 39783,
        "ELEMENT_SET_NO": 999,
        "REV_AT_EPOCH": 60401,
        "BSTAR": 0.010398125,
        "MEAN_MOTION_DOT": 0.00226179,
        "MEAN_MOTION_DDOT": 0,
        "norad_id": 39783,
        "name": "IRIDIUM 33 DEB",
        "group": "iridium-33-debris",
        "longitude_deg": NaN,
        "latitude_deg": NaN,
        "alt_km": NaN,
        "orbit_class": "HEO",
        "timestamp": "2025-11-30T09:33:02.606403+00:00"
      },
      "geometry": {
        "type": "Point",
        "coordinates": [
          NaN,
          NaN
        ]
      }
    }
  ]
}